[{"OBJECT_NAME":"ONEWEB-0710","OBJECT_ID":"2023-004AK","EPOCH":"2026-04-27T04:11:32.147232","MEAN_MOTION":13.17649023,"ECCENTRICITY":0.0001676,"INCLINATION":87.9181,"RA_OF_ASC_NODE":16.003,"ARG_OF_PERICENTER":84.1937,"MEAN_ANOMALY":275.9386,"EPHEMERIS_TYPE":0,"CLASSIFICATION_TYPE":"U","NORAD_CAT_ID":55173,"ELEMENT_SET_NO":999,"REV_AT_EPOCH":16086,"BSTAR":0.00026983000000000004,"MEAN_MOTION_DOT":1.18e-06,"MEAN_MOTION_DDOT":0.0},{"OBJECT_NAME":"ONEWEB-0711","OBJECT_ID":"2023-004AL","EPOCH":"2026-04-27T06:51:14.120640","MEAN_MOTION":13.11417583,"ECCENTRICITY":0.0001494,"INCLINATION":87.8922,"RA_OF_ASC_NODE":31.1871,"ARG_OF_PERICENTER":101.8738,"MEAN_ANOMALY":258.2557,"EPHEMERIS_TYPE":0,"CLASSIFICATION_TYPE":"U","NORAD_CAT_ID":55174,"ELEMENT_SET_NO":999,"REV_AT_EPOCH":15916,"BSTAR":0.0016833000000000002,"MEAN_MOTION_DOT":6.09e-06,"MEAN_MOTION_DDOT":0.0},{"OBJECT_NAME":"ONEWEB-0713","OBJECT_ID":"2023-004AM","EPOCH":"2026-04-27T05:28:12.982656","MEAN_MOTION":13.11415252,"ECCENTRICITY":0.0001582,"INCLINATION":87.8928,"RA_OF_ASC_NODE":31.1987,"ARG_OF_PERICENTER":89.9374,"MEAN_ANOMALY":270.1935,"EPHEMERIS_TYPE":0,"CLASSIFICATION_TYPE":"U","NORAD_CAT_ID":55175,"ELEMENT_SET_NO":999,"REV_AT_EPOCH":15914,"BSTAR":0.00022347,"MEAN_MOTION_DOT":9.2e-07,"MEAN_MOTION_DDOT":0.0},{"OBJECT_NAME":"ONEWEB-0715","OBJECT_ID":"2023-004AN","EPOCH":"2026-04-27T05:20:53.736288","MEAN_MOTION":13.11415633,"ECCENTRICITY":0.0001379,"INCLINATION":87.8933,"RA_OF_ASC_NODE":31.1996,"ARG_OF_PERICENTER":58.3885,"MEAN_ANOMALY":301.7378,"EPHEMERIS_TYPE":0,"CLASSIFICATION_TYPE":"U","NORAD_CAT_ID":55176,"ELEMENT_SET_NO":999,"REV_AT_EPOCH":15918,"BSTAR":0.00087476,"MEAN_MOTION_DOT":3.23e-06,"MEAN_MOTION_DDOT":0.0},{"OBJECT_NAME":"ONEWEB-0716","OBJECT_ID":"2023-004AP","EPOCH":"2026-04-27T04:01:48.692352","MEAN_MOTION":13.1764825,"ECCENTRICITY":0.0002043,"INCLINATION":87.9184,"RA_OF_ASC_NODE":16.0058,"ARG_OF_PERICENTER":78.2656,"MEAN_ANOMALY":281.8705,"EPHEMERIS_TYPE":0,"CLASSIFICATION_TYPE":"U","NORAD_CAT_ID":55177,"ELEMENT_SET_NO":999,"REV_AT_EPOCH":16086,"BSTAR":0.00026319,"MEAN_MOTION_DOT":1.15e-06,"MEAN_MOTION_DDOT":0.0},{"OBJECT_NAME":"ONEWEB-0717","OBJECT_ID":"2023-004AQ","EPOCH":"2026-04-27T05:26:51.707040","MEAN_MOTION":13.17648148,"ECCENTRICITY":0.0001386,"INCLINATION":87.9191,"RA_OF_ASC_NODE":15.9775,"ARG_OF_PERICENTER":99.4366,"MEAN_ANOMALY":260.6922,"EPHEMERIS_TYPE":0,"CLASSIFICATION_TYPE":"U","NORAD_CAT_ID":55178,"ELEMENT_SET_NO":999,"REV_AT_EPOCH":16092,"BSTAR":0.00011884000000000001,"MEAN_MOTION_DOT":5.9e-07,"MEAN_MOTION_DDOT":0.0},{"OBJECT_NAME":"ONEWEB-0719","OBJECT_ID":"2023-004AR","EPOCH":"2026-04-27T05:41:26.409408","MEAN_MOTION":13.17648621,"ECCENTRICITY":0.0001994,"INCLINATION":87.9191,"RA_OF_ASC_NODE":15.9565,"ARG_OF_PERICENTER":82.5934,"MEAN_ANOMALY":277.5425,"EPHEMERIS_TYPE":0,"CLASSIFICATION_TYPE":"U","NORAD_CAT_ID":55179,"ELEMENT_SET_NO":999,"REV_AT_EPOCH":16087,"BSTAR":2.4610000000000003e-05,"MEAN_MOTION_DOT":2.2e-07,"MEAN_MOTION_DDOT":0.0},{"OBJECT_NAME":"ONEWEB-0530","OBJECT_ID":"2023-029A","EPOCH":"2026-04-27T04:21:57.985632","MEAN_MOTION":13.20729964,"ECCENTRICITY":0.0001822,"INCLINATION":87.9149,"RA_OF_ASC_NODE":284.6517,"ARG_OF_PERICENTER":106.0705,"MEAN_ANOMALY":254.0629,"EPHEMERIS_TYPE":0,"CLASSIFICATION_TYPE":"U","NORAD_CAT_ID":55796,"ELEMENT_SET_NO":999,"REV_AT_EPOCH":15441,"BSTAR":0.02647,"MEAN_MOTION_DOT":0.00010782,"MEAN_MOTION_DDOT":0.0},{"OBJECT_NAME":"ONEWEB-0534","OBJECT_ID":"2023-029B","EPOCH":"2026-04-27T04:03:43.187040","MEAN_MOTION":13.20770118,"ECCENTRICITY":0.0001902,"INCLINATION":87.9134,"RA_OF_ASC_NODE":284.654,"ARG_OF_PERICENTER":92.8739,"MEAN_ANOMALY":267.2612,"EPHEMERIS_TYPE":0,"CLASSIFICATION_TYPE":"U","NORAD_CAT_ID":55797,"ELEMENT_SET_NO":999,"REV_AT_EPOCH":15441,"BSTAR":0.00013664000000000002,"MEAN_MOTION_DOT":6.9e-07,"MEAN_MOTION_DDOT":0.0},{"OBJECT_NAME":"ONEWEB-0556","OBJECT_ID":"2023-029C","EPOCH":"2026-04-27T04:12:50.967360","MEAN_MOTION":13.20771905,"ECCENTRICITY":0.000262,"INCLINATION":87.9131,"RA_OF_ASC_NODE":284.6538,"ARG_OF_PERICENTER":100.191,"MEAN_ANOMALY":259.9519,"EPHEMERIS_TYPE":0,"CLASSIFICATION_TYPE":"U","NORAD_CAT_ID":55798,"ELEMENT_SET_NO":999,"REV_AT_EPOCH":15441,"BSTAR":0.00022254,"MEAN_MOTION_DOT":1.03e-06,"MEAN_MOTION_DDOT":0.0},{"OBJECT_NAME":"ONEWEB-0562","OBJECT_ID":"2023-029D","EPOCH":"2026-04-27T03:54:37.766304","MEAN_MOTION":13.2077062,"ECCENTRICITY":0.0002317,"INCLINATION":87.9132,"RA_OF_ASC_NODE":284.637,"ARG_OF_PERICENTER":115.1229,"MEAN_ANOMALY":245.0145,"EPHEMERIS_TYPE":0,"CLASSIFICATION_TYPE":"U","NORAD_CAT_ID":55799,"ELEMENT_SET_NO":999,"REV_AT_EPOCH":15441,"BSTAR":0.00015732,"MEAN_MOTION_DOT":7.7e-07,"MEAN_MOTION_DDOT":0.0},{"OBJECT_NAME":"ONEWEB-0563","OBJECT_ID":"2023-029E","EPOCH":"2026-04-27T00:07:23.012544","MEAN_MOTION":13.20772325,"ECCENTRICITY":0.0001985,"INCLINATION":87.9132,"RA_OF_ASC_NODE":284.6988,"ARG_OF_PERICENTER":91.3193,"MEAN_ANOMALY":268.8168,"EPHEMERIS_TYPE":0,"CLASSIFICATION_TYPE":"U","NORAD_CAT_ID":55800,"ELEMENT_SET_NO":999,"REV_AT_EPOCH":15438,"BSTAR":3.7372e-05,"MEAN_MOTION_DOT":2.8e-07,"MEAN_MOTION_DDOT":0.0},{"OBJECT_NAME":"ONEWEB-0564","OBJECT_ID":"2023-029F","EPOCH":"2026-04-27T05:25:31.953792","MEAN_MOTION":13.20773665,"ECCENTRICITY":0.0001897,"INCLINATION":87.9134,"RA_OF_ASC_NODE":284.6273,"ARG_OF_PERICENTER":106.6337,"MEAN_ANOMALY":253.5005,"EPHEMERIS_TYPE":0,"CLASSIFICATION_TYPE":"U","NORAD_CAT_ID":55801,"ELEMENT_SET_NO":999,"REV_AT_EPOCH":15442,"BSTAR":-5.509800000000001e-05,"MEAN_MOTION_DOT":-9e-08,"MEAN_MOTION_DDOT":0.0},{"OBJECT_NAME":"ONEWEB-0638","OBJECT_ID":"2023-029G","EPOCH":"2026-04-27T05:48:22.095360","MEAN_MOTION":13.14503005,"ECCENTRICITY":0.0002262,"INCLINATION":87.8915,"RA_OF_ASC_NODE":299.9241,"ARG_OF_PERICENTER":99.9941,"MEAN_ANOMALY":260.1444,"EPHEMERIS_TYPE":0,"CLASSIFICATION_TYPE":"U","NORAD_CAT_ID":55802,"ELEMENT_SET_NO":999,"REV_AT_EPOCH":15270,"BSTAR":-0.00021307999999999999,"MEAN_MOTION_DOT":-6.6e-07,"MEAN_MOTION_DDOT":0.0},{"OBJECT_NAME":"ONEWEB-0639","OBJECT_ID":"2023-029H","EPOCH":"2026-04-27T01:59:34.192896","MEAN_MOTION":13.19724754,"ECCENTRICITY":0.00023,"INCLINATION":87.9152,"RA_OF_ASC_NODE":315.1686,"ARG_OF_PERICENTER":64.0463,"MEAN_ANOMALY":296.0907,"EPHEMERIS_TYPE":0,"CLASSIFICATION_TYPE":"U","NORAD_CAT_ID":55803,"ELEMENT_SET_NO":999,"REV_AT_EPOCH":15216,"BSTAR":3.9196e-05,"MEAN_MOTION_DOT":2.9e-07,"MEAN_MOTION_DDOT":0.0},{"OBJECT_NAME":"ONEWEB-0640","OBJECT_ID":"2023-029J","EPOCH":"2026-04-27T06:02:04.358112","MEAN_MOTION":13.1450293,"ECCENTRICITY":0.0002468,"INCLINATION":87.8914,"RA_OF_ASC_NODE":299.913,"ARG_OF_PERICENTER":92.2192,"MEAN_ANOMALY":267.922,"EPHEMERIS_TYPE":0,"CLASSIFICATION_TYPE":"U","NORAD_CAT_ID":55804,"ELEMENT_SET_NO":999,"REV_AT_EPOCH":15272,"BSTAR":0.00039952,"MEAN_MOTION_DOT":1.61e-06,"MEAN_MOTION_DDOT":0.0}]