ONEWEB-0710             
1 55173U 23004AK  26117.17467763  .00000118  00000+0  26983-3 0  9998
2 55173  87.9181  16.0030 0001676  84.1937 275.9386 13.17649023160866
ONEWEB-0711             
1 55174U 23004AL  26117.28558010  .00000609  00000+0  16833-2 0  9994
2 55174  87.8922  31.1871 0001494 101.8738 258.2557 13.11417583159167
ONEWEB-0713             
1 55175U 23004AM  26117.22792804  .00000092  00000+0  22347-3 0  9994
2 55175  87.8928  31.1987 0001582  89.9374 270.1935 13.11415252159144
ONEWEB-0715             
1 55176U 23004AN  26117.22284417  .00000323  00000+0  87476-3 0  9992
2 55176  87.8933  31.1996 0001379  58.3885 301.7378 13.11415633159181
ONEWEB-0716             
1 55177U 23004AP  26117.16792468  .00000115  00000+0  26319-3 0  9994
2 55177  87.9184  16.0058 0002043  78.2656 281.8705 13.17648250160866
ONEWEB-0717             
1 55178U 23004AQ  26117.22698735  .00000059  00000+0  11884-3 0  9992
2 55178  87.9191  15.9775 0001386  99.4366 260.6922 13.17648148160920
ONEWEB-0719             
1 55179U 23004AR  26117.23711122  .00000022  00000+0  24610-4 0  9992
2 55179  87.9191  15.9565 0001994  82.5934 277.5425 13.17648621160872
ONEWEB-0530             
1 55796U 23029A   26117.18192113  .00010782  00000+0  26470-1 0  9998
2 55796  87.9149 284.6517 0001822 106.0705 254.0629 13.20729964154413
ONEWEB-0534             
1 55797U 23029B   26117.16924985  .00000069  00000+0  13664-3 0  9997
2 55797  87.9134 284.6540 0001902  92.8739 267.2612 13.20770118154417
ONEWEB-0556             
1 55798U 23029C   26117.17558990  .00000103  00000+0  22254-3 0  9992
2 55798  87.9131 284.6538 0002620 100.1910 259.9519 13.20771905154413
ONEWEB-0562             
1 55799U 23029D   26117.16293711  .00000077  00000+0  15732-3 0  9992
2 55799  87.9132 284.6370 0002317 115.1229 245.0145 13.20770620154415
ONEWEB-0563             
1 55800U 23029E   26117.00512746  .00000028  00000+0  37372-4 0  9991
2 55800  87.9132 284.6988 0001985  91.3193 268.8168 13.20772325154386
ONEWEB-0564             
1 55801U 23029F   26117.22606428 -.00000009  00000+0 -55098-4 0  9993
2 55801  87.9134 284.6273 0001897 106.6337 253.5005 13.20773665154422
ONEWEB-0638             
1 55802U 23029G   26117.24192240 -.00000066  00000+0 -21308-3 0  9997
2 55802  87.8915 299.9241 0002262  99.9941 260.1444 13.14503005152707
ONEWEB-0639             
1 55803U 23029H   26117.08303464  .00000029  00000+0  39196-4 0  9994
2 55803  87.9152 315.1686 0002300  64.0463 296.0907 13.19724754152164
ONEWEB-0640             
1 55804U 23029J   26117.25143933  .00000161  00000+0  39952-3 0  9993
2 55804  87.8914 299.9130 0002468  92.2192 267.9220 13.14502930152722
